[{"OBJECT_NAME":"FLOCK 4G-25","OBJECT_ID":"2025-009AP","EPOCH":"2026-03-09T17:53:50.680608","MEAN_MOTION":15.27424196,"ECCENTRICITY":8.276e-5,"INCLINATION":97.4049,"RA_OF_ASC_NODE":151.4141,"ARG_OF_PERICENTER":316.3151,"MEAN_ANOMALY":43.8023,"EPHEMERIS_TYPE":0,"CLASSIFICATION_TYPE":"U","NORAD_CAT_ID":62646,"ELEMENT_SET_NO":999,"REV_AT_EPOCH":6373,"BSTAR":0.00038902475,"MEAN_MOTION_DOT":0.00010373,"MEAN_MOTION_DDOT":0},{"OBJECT_NAME":"STARLINK-36530","OBJECT_ID":"2026-012X","EPOCH":"2026-03-09T23:11:53.642112","MEAN_MOTION":15.2758864,"ECCENTRICITY":0.0001553,"INCLINATION":43.0006,"RA_OF_ASC_NODE":312.877,"ARG_OF_PERICENTER":280.4095,"MEAN_ANOMALY":79.6581,"EPHEMERIS_TYPE":0,"CLASSIFICATION_TYPE":"U","NORAD_CAT_ID":67514,"ELEMENT_SET_NO":999,"REV_AT_EPOCH":780,"BSTAR":0.00092126644,"MEAN_MOTION_DOT":0.00025183,"MEAN_MOTION_DDOT":0}]
